CCSDS_OMM_VERS = 2.0
CREATION_DATE  = 
ORIGINATOR     = 

OBJECT_NAME    = SL-16 R/B
OBJECT_ID      = 2000-006B
CENTER_NAME    = EARTH
REF_FRAME      = TEME
TIME_SYSTEM    = UTC
MEAN_ELEMENT_THEORY = SGP/SGP4

EPOCH          = 2025-12-04T15:10:54.996672
MEAN_MOTION    = 14.15808731
ECCENTRICITY   = .00180499
INCLINATION    = 71.0028
RA_OF_ASC_NODE = 297.7036
ARG_OF_PERICENTER = 319.9132
MEAN_ANOMALY   = 40.0658

EPHEMERIS_TYPE = 0
CLASSIFICATION_TYPE = U
NORAD_CAT_ID   = 26070
ELEMENT_SET_NO = 999
REV_AT_EPOCH   = 33510
BSTAR          = .17384544E-3
MEAN_MOTION_DOT = .294E-5
MEAN_MOTION_DDOT = 0

CCSDS_OMM_VERS = 2.0
CREATION_DATE  = 
ORIGINATOR     = 

OBJECT_NAME    = TITAN 4B R/B
OBJECT_ID      = 2000-047B
CENTER_NAME    = EARTH
REF_FRAME      = TEME
TIME_SYSTEM    = UTC
MEAN_ELEMENT_THEORY = SGP/SGP4

EPOCH          = 2025-12-04T12:32:24.356832
MEAN_MOTION    = 15.08685540
ECCENTRICITY   = .00396013
INCLINATION    = 67.9900
RA_OF_ASC_NODE = 307.9312
ARG_OF_PERICENTER = 154.4591
MEAN_ANOMALY   = 205.8526

EPHEMERIS_TYPE = 0
CLASSIFICATION_TYPE = U
NORAD_CAT_ID   = 26474
ELEMENT_SET_NO = 999
REV_AT_EPOCH   = 37855
BSTAR          = .50995959E-3
MEAN_MOTION_DOT = .8034E-4
MEAN_MOTION_DDOT = 0

CCSDS_OMM_VERS = 2.0
CREATION_DATE  = 
ORIGINATOR     = 

OBJECT_NAME    = ENVISAT
OBJECT_ID      = 2002-009A
CENTER_NAME    = EARTH
REF_FRAME      = TEME
TIME_SYSTEM    = UTC
MEAN_ELEMENT_THEORY = SGP/SGP4

EPOCH          = 2025-12-04T15:39:55.471104
MEAN_MOTION    = 14.38994663
ECCENTRICITY   = .00011463
INCLINATION    = 98.3587
RA_OF_ASC_NODE = 289.5987
ARG_OF_PERICENTER = 82.1099
MEAN_ANOMALY   = 91.1909

EPHEMERIS_TYPE = 0
CLASSIFICATION_TYPE = U
NORAD_CAT_ID   = 27386
ELEMENT_SET_NO = 999
REV_AT_EPOCH   = 24550
BSTAR          = .10639996E-3
MEAN_MOTION_DOT = .286E-5
MEAN_MOTION_DDOT = 0

CCSDS_OMM_VERS = 2.0
CREATION_DATE  = 
ORIGINATOR     = 

OBJECT_NAME    = IDEFIX & ARIANE 42P R/B
OBJECT_ID      = 2002-021B
CENTER_NAME    = EARTH
REF_FRAME      = TEME
TIME_SYSTEM    = UTC
MEAN_ELEMENT_THEORY = SGP/SGP4

EPOCH          = 2025-12-04T13:00:29.263968
MEAN_MOTION    = 14.30941017
ECCENTRICITY   = .00128523
INCLINATION    = 98.5775
RA_OF_ASC_NODE = 273.3398
ARG_OF_PERICENTER = 105.7515
MEAN_ANOMALY   = 254.5086

EPHEMERIS_TYPE = 0
CLASSIFICATION_TYPE = U
NORAD_CAT_ID   = 27422
ELEMENT_SET_NO = 999
REV_AT_EPOCH   = 23041
BSTAR          = .24966366E-3
MEAN_MOTION_DOT = .613E-5
MEAN_MOTION_DDOT = 0

CCSDS_OMM_VERS = 2.0
CREATION_DATE  = 
ORIGINATOR     = 

OBJECT_NAME    = AQUA
OBJECT_ID      = 2002-022A
CENTER_NAME    = EARTH
REF_FRAME      = TEME
TIME_SYSTEM    = UTC
MEAN_ELEMENT_THEORY = SGP/SGP4

EPOCH          = 2025-12-04T15:12:40.881600
MEAN_MOTION    = 14.61779026
ECCENTRICITY   = .00008223
INCLINATION    = 98.4023
RA_OF_ASC_NODE = 299.3816
ARG_OF_PERICENTER = 110.8111
MEAN_ANOMALY   = 62.9205

EPHEMERIS_TYPE = 0
CLASSIFICATION_TYPE = U
NORAD_CAT_ID   = 27424
ELEMENT_SET_NO = 999
REV_AT_EPOCH   = 25484
BSTAR          = .52684853E-3
MEAN_MOTION_DOT = .258E-4
MEAN_MOTION_DDOT = 0

CCSDS_OMM_VERS = 2.0
CREATION_DATE  = 
ORIGINATOR     = 

OBJECT_NAME    = CZ-4B R/B
OBJECT_ID      = 2002-024C
CENTER_NAME    = EARTH
REF_FRAME      = TEME
TIME_SYSTEM    = UTC
MEAN_ELEMENT_THEORY = SGP/SGP4

EPOCH          = 2025-12-04T15:54:18.050688
MEAN_MOTION    = 14.14525274
ECCENTRICITY   = .00492091
INCLINATION    = 98.9012
RA_OF_ASC_NODE = 27.4622
ARG_OF_PERICENTER = 293.3069
MEAN_ANOMALY   = 179.3670

EPHEMERIS_TYPE = 0
CLASSIFICATION_TYPE = U
NORAD_CAT_ID   = 27432
ELEMENT_SET_NO = 999
REV_AT_EPOCH   = 21580
BSTAR          = .95219334E-4
MEAN_MOTION_DOT = .14E-5
MEAN_MOTION_DDOT = 0

CCSDS_OMM_VERS = 2.0
CREATION_DATE  = 
ORIGINATOR     = 

OBJECT_NAME    = MIDORI II (ADEOS-II)
OBJECT_ID      = 2002-056A
CENTER_NAME    = EARTH
REF_FRAME      = TEME
TIME_SYSTEM    = UTC
MEAN_ELEMENT_THEORY = SGP/SGP4

EPOCH          = 2025-12-04T14:15:54.636768
MEAN_MOTION    = 14.29197346
ECCENTRICITY   = .0000261
INCLINATION    = 98.7624
RA_OF_ASC_NODE = 291.5085
ARG_OF_PERICENTER = 8.5691
MEAN_ANOMALY   = 351.5495

EPHEMERIS_TYPE = 0
CLASSIFICATION_TYPE = U
NORAD_CAT_ID   = 27597
ELEMENT_SET_NO = 999
REV_AT_EPOCH   = 19671
BSTAR          = .23975136E-3
MEAN_MOTION_DOT = .564E-5
MEAN_MOTION_DDOT = 0

CCSDS_OMM_VERS = 2.0
CREATION_DATE  = 
ORIGINATOR     = 

OBJECT_NAME    = H-2A R/B
OBJECT_ID      = 2002-056E
CENTER_NAME    = EARTH
REF_FRAME      = TEME
TIME_SYSTEM    = UTC
MEAN_ELEMENT_THEORY = SGP/SGP4

EPOCH          = 2025-12-04T16:13:43.808736
MEAN_MOTION    = 14.33666213
ECCENTRICITY   = .0071514
INCLINATION    = 98.3052
RA_OF_ASC_NODE = 297.7546
ARG_OF_PERICENTER = 84.7882
MEAN_ANOMALY   = 87.4403

EPHEMERIS_TYPE = 0
CLASSIFICATION_TYPE = U
NORAD_CAT_ID   = 27601
ELEMENT_SET_NO = 999
REV_AT_EPOCH   = 20049
BSTAR          = .23779921E-3
MEAN_MOTION_DOT = .638E-5
MEAN_MOTION_DDOT = 0

CCSDS_OMM_VERS = 2.0
CREATION_DATE  = 
ORIGINATOR     = 

OBJECT_NAME    = CZ-4B R/B
OBJECT_ID      = 2003-049C
CENTER_NAME    = EARTH
REF_FRAME      = TEME
TIME_SYSTEM    = UTC
MEAN_ELEMENT_THEORY = SGP/SGP4

EPOCH          = 2025-12-04T13:10:44.638464
MEAN_MOTION    = 14.54898086
ECCENTRICITY   = .00485749
INCLINATION    = 98.6780
RA_OF_ASC_NODE = 324.8040
ARG_OF_PERICENTER = 160.7899
MEAN_ANOMALY   = 199.5143

EPHEMERIS_TYPE = 0
CLASSIFICATION_TYPE = U
NORAD_CAT_ID   = 28059
ELEMENT_SET_NO = 999
REV_AT_EPOCH   = 17276
BSTAR          = .18357051E-3
MEAN_MOTION_DOT = .75E-5
MEAN_MOTION_DDOT = 0

CCSDS_OMM_VERS = 2.0
CREATION_DATE  = 
ORIGINATOR     = 

OBJECT_NAME    = CZ-2C R/B
OBJECT_ID      = 2004-012C
CENTER_NAME    = EARTH
REF_FRAME      = TEME
TIME_SYSTEM    = UTC
MEAN_ELEMENT_THEORY = SGP/SGP4

EPOCH          = 2025-12-04T13:37:15.708288
MEAN_MOTION    = 15.54699550
ECCENTRICITY   = .00168815
INCLINATION    = 97.7438
RA_OF_ASC_NODE = 30.5192
ARG_OF_PERICENTER = 302.4688
MEAN_ANOMALY   = 57.4932

EPHEMERIS_TYPE = 0
CLASSIFICATION_TYPE = U
NORAD_CAT_ID   = 28222
ELEMENT_SET_NO = 999
REV_AT_EPOCH   = 18945
BSTAR          = .10120551E-2
MEAN_MOTION_DOT = .67883E-3
MEAN_MOTION_DDOT = 0

CCSDS_OMM_VERS = 2.0
CREATION_DATE  = 
ORIGINATOR     = 

OBJECT_NAME    = SL-16 R/B
OBJECT_ID      = 2004-021B
CENTER_NAME    = EARTH
REF_FRAME      = TEME
TIME_SYSTEM    = UTC
MEAN_ELEMENT_THEORY = SGP/SGP4

EPOCH          = 2025-12-04T15:08:30.356160
MEAN_MOTION    = 14.14582638
ECCENTRICITY   = .00057248
INCLINATION    = 71.0023
RA_OF_ASC_NODE = 71.9811
ARG_OF_PERICENTER = 211.4928
MEAN_ANOMALY   = 148.5853

EPHEMERIS_TYPE = 0
CLASSIFICATION_TYPE = U
NORAD_CAT_ID   = 28353
ELEMENT_SET_NO = 999
REV_AT_EPOCH   = 10939
BSTAR          = -.17495458E-4
MEAN_MOTION_DOT = -.81E-6
MEAN_MOTION_DDOT = 0

CCSDS_OMM_VERS = 2.0
CREATION_DATE  = 
ORIGINATOR     = 

OBJECT_NAME    = CZ-4B R/B
OBJECT_ID      = 2004-035C
CENTER_NAME    = EARTH
REF_FRAME      = TEME
TIME_SYSTEM    = UTC
MEAN_ELEMENT_THEORY = SGP/SGP4

EPOCH          = 2025-12-04T15:12:27.190656
MEAN_MOTION    = 15.27173821
ECCENTRICITY   = .0032068
INCLINATION    = 97.3612
RA_OF_ASC_NODE = 9.0871
ARG_OF_PERICENTER = 307.6340
MEAN_ANOMALY   = 52.1990

EPHEMERIS_TYPE = 0
CLASSIFICATION_TYPE = U
NORAD_CAT_ID   = 28415
ELEMENT_SET_NO = 999
REV_AT_EPOCH   = 16539
BSTAR          = .61729572E-3
MEAN_MOTION_DOT = .16638E-3
MEAN_MOTION_DDOT = 0

CCSDS_OMM_VERS = 2.0
CREATION_DATE  = 
ORIGINATOR     = 

OBJECT_NAME    = CZ-2C R/B
OBJECT_ID      = 2004-046B
CENTER_NAME    = EARTH
REF_FRAME      = TEME
TIME_SYSTEM    = UTC
MEAN_ELEMENT_THEORY = SGP/SGP4

EPOCH          = 2025-12-04T11:23:11.535648
MEAN_MOTION    = 14.26934991
ECCENTRICITY   = .01406782
INCLINATION    = 98.1983
RA_OF_ASC_NODE = 254.3664
ARG_OF_PERICENTER = 76.5538
MEAN_ANOMALY   = 285.1278

EPHEMERIS_TYPE = 0
CLASSIFICATION_TYPE = U
NORAD_CAT_ID   = 28480
ELEMENT_SET_NO = 999
REV_AT_EPOCH   = 9492
BSTAR          = .14700771E-3
MEAN_MOTION_DOT = .357E-5
MEAN_MOTION_DDOT = 0

CCSDS_OMM_VERS = 2.0
CREATION_DATE  = 
ORIGINATOR     = 

OBJECT_NAME    = ARIANE 5 R/B
OBJECT_ID      = 2004-049H
CENTER_NAME    = EARTH
REF_FRAME      = TEME
TIME_SYSTEM    = UTC
MEAN_ELEMENT_THEORY = SGP/SGP4

EPOCH          = 2025-12-04T10:22:13.341504
MEAN_MOTION    = 14.84983056
ECCENTRICITY   = .00835331
INCLINATION    = 98.2520
RA_OF_ASC_NODE = 138.4157
ARG_OF_PERICENTER = 300.2498
MEAN_ANOMALY   = 59.0465

EPHEMERIS_TYPE = 0
CLASSIFICATION_TYPE = U
NORAD_CAT_ID   = 28499
ELEMENT_SET_NO = 999
REV_AT_EPOCH   = 13165
BSTAR          = .22364597E-3
MEAN_MOTION_DOT = .1964E-4
MEAN_MOTION_DDOT = 0

CCSDS_OMM_VERS = 2.0
CREATION_DATE  = 
ORIGINATOR     = 

OBJECT_NAME    = CZ-2D R/B
OBJECT_ID      = 2005-024B
CENTER_NAME    = EARTH
REF_FRAME      = TEME
TIME_SYSTEM    = UTC
MEAN_ELEMENT_THEORY = SGP/SGP4

EPOCH          = 2025-12-04T12:54:56.919456
MEAN_MOTION    = 15.52570493
ECCENTRICITY   = .0006791
INCLINATION    = 97.3628
RA_OF_ASC_NODE = 345.7745
ARG_OF_PERICENTER = 32.9866
MEAN_ANOMALY   = 327.1809

EPHEMERIS_TYPE = 0
CLASSIFICATION_TYPE = U
NORAD_CAT_ID   = 28738
ELEMENT_SET_NO = 999
REV_AT_EPOCH   = 12498
BSTAR          = .67452177E-3
MEAN_MOTION_DOT = .41508E-3
MEAN_MOTION_DDOT = 0

